TIANWANG 1C (TW-1C)     
1 40926U 15051B   17177.40258534  .00006240  00000-0  14409-3 0  9990
2 40926  97.2291 216.8923 0013076 130.0565 288.1919 15.42801901 98344
TIANWANG 1B (TW-1B)     
1 40927U 15051C   17177.56202531  .00006213  00000-0  14886-3 0  9993
2 40927  97.2377 217.0638 0012893 138.7824  17.7851 15.41697244 98315
TIANWANG 1A (TW-1A)     
1 40928U 15051D   17177.54561069  .00002936  00000-0  85395-4 0  9998
2 40928  97.2261 213.1935 0013247 156.5607   1.8945 15.36154635 98130
LAPAN-A2 (IO-86)        
1 40931U 15052B   17177.43089323  .00000751  00000-0  15649-4 0  9997
2 40931   5.9979 166.8223 0013550  13.9871 346.0688 14.76532241 94338
LQSAT                   
1 40958U 15057A   17177.55458984  .00000022  00000-0  11214-4 0  9992
2 40958  97.9780 252.7106 0019312  39.1913 321.0691 14.72969541 92509
CHUBUSAT-2              
1 41338U 16012B   17177.07110578  .00000335  00000-0  19574-4 0  9992
2 41338  31.0042  55.8366 0013895 148.2284 211.9192 14.99747796 74323
CHUBUSAT-3              
1 41339U 16012C   17177.33083293  .00000299  00000-0  16679-4 0  9997
2 41339  31.0121  53.3155 0013636 156.8109 203.3149 14.99952684 74348
OUFTI-1                 
1 41458U 16025C   17177.56365744  .00001073  00000-0  62219-4 0  9994
2 41458  98.1858 215.6824 0172452 258.1462 100.0376 15.03201293 63990
E-ST@R-II               
1 41459U 16025D   17177.58563574  .00001765  00000-0  99205-4 0  9991
2 41459  98.1831 215.6467 0173410 257.9985 100.1764 15.03036870 63985
AAUSAT 4                
1 41460U 16025E   17177.51098864  .00002027  00000-0  11301-3 0  9993
2 41460  98.1777 215.6802 0166530 256.9696 101.2886 15.03933702 63990
NUSAT 1 (LO-87)         
1 41557U 16033B   17177.25316282  .00001339  00000-0  53150-4 0  9991
2 41557  97.4631 256.7703 0013642 342.2403  17.8357 15.27070319 59817
BEESAT-4                
1 41619U 16040W   17177.13997651  .00001419  00000-0  67489-4 0  9999
2 41619  97.4619 239.4409 0013186  43.4788 316.7484 15.20774010 43954
PRATHAM                 
1 41783U 16059A   17177.60026764  .00000039  00000-0  17067-4 0  9995
2 41783  98.1664 238.8772 0034749 130.0080 230.4181 14.62840531 39976
ALSAT 1N                
1 41789U 16059G   17177.44433838  .00000075  00000-0  23387-4 0  9999
2 41789  98.1670 239.2412 0029371 124.1535 236.2460 14.64052196 39966
NAYIF-1 (EO-88)         
1 42017U 17008BX  17177.56716335  .00001549  00000-0  68908-4 0  9993
2 42017  97.4947 239.0057 0006682 173.9738 186.1580 15.22999832 19911
LILACSAT-1              
1 42725U 98067ME  17176.95556131  .00011173  00000-0  16891-3 0  9998
2 42725  51.6406 354.4136 0006614 344.7489  15.3302 15.55218236  4844
